NORAD_CAT_ID,OBJECT_NAME,OBJECT_TYPE,EPOCH,MEAN_MOTION,ECCENTRICITY,INCLINATION,RA_OF_ASC_NODE,ARG_OF_PERICENTER,MEAN_ANOMALY,BSTAR,MEAN_MOTION_DOT,MEAN_MOTION_DDOT,TLE_LINE0,TLE_LINE1,TLE_LINE2,SEMIMAJOR_AXIS,PERIOD,APOGEE,PERIGEE,DECAYED
53403.0,STARLINK-4507,PAYLOAD,2022-09-06 20:00:01,15.49900377,0.0001306,53.2194,112.2459,77.0505,211.8728,-0.00031304,-0.00018186,0.0,0 STARLINK-4507,1 53403U 22097R   22249.83334491 -.00018186  00000-0 -31304-3 0  9999,2 53403  53.2194 112.2459 0001306  77.0505 211.8728 15.49900377  4760,6795.154,92.909,417.907,416.132,0.0
53403.0,STARLINK-4507,PAYLOAD,2022-09-06 22:00:00,15.49892947,0.0001338,53.2195,111.848,74.6081,319.5477,-3.5645e-05,-2.474e-05,0.0,0 STARLINK-4507,1 53403U 22097R   22249.91667824 -.00002474  00000-0 -35645-4 0  9993,2 53403  53.2195 111.8480 0001338  74.6081 319.5477 15.49892947  1304,6795.176,92.91,417.95,416.132,0.0
53403.0,STARLINK-4507,PAYLOAD,2022-09-07 14:00:01,15.49988976,0.0001242,53.2184,108.6662,85.1449,70.8381,-0.011243,-0.00594498,0.0,0 STARLINK-4507,1 53403U 22097R   22250.58334491 -.00594498  00000-0 -11243-1 0  9996,2 53403  53.2184 108.6662 0001242  85.1449  70.8381 15.49988976  4882,6794.895,92.904,417.604,415.916,0.0
53403.0,STARLINK-4507,PAYLOAD,2022-09-07 22:00:00,15.49694574,0.0001351,53.2177,107.0806,74.8398,141.9004,-0.021599,-0.01101199,0.0,0 STARLINK-4507,1 53403U 22097R   22250.91667824 -.01101199  00000-0 -21599-1 0  9990,2 53403  53.2177 107.0806 0001351  74.8398 141.9004 15.49694574  4932,6795.755999999999,92.922,418.539,416.703,0.0
53403.0,STARLINK-4507,PAYLOAD,2022-09-08 14:00:01,15.48095478,0.0001109,53.2177,103.9021,80.2443,255.9341,-0.023076,-0.01110697,0.0,0 STARLINK-4507,1 53403U 22097R   22251.58334491 -.01110697  00000-0 -23076-1 0  9990,2 53403  53.2177 103.9021 0001109  80.2443 255.9341 15.48095478  1304,6800.435,93.018,423.054,421.546,0.0
53403.0,STARLINK-4507,PAYLOAD,2022-09-08 22:00:00,15.47296349,0.000122,53.2176,102.3184,61.5986,332.8501,-0.023882,-0.01133454,0.0,0 STARLINK-4507,1 53403U 22097R   22251.91667824 -.01133454  00000-0 -23882-1 0  9997,2 53403  53.2176 102.3184 0001220  61.5986 332.8501 15.47296349  1306,6802.776,93.066,425.471,423.811,0.0
53403.0,STARLINK-4507,PAYLOAD,2022-09-09 14:00:01,15.45687871,0.0001329,53.2178,99.1508,73.3829,74.7188,-0.025118,-0.01127863,0.0,0 STARLINK-4507,1 53403U 22097R   22252.58334491 -.01127863  00000-0 -25118-1 0  9993,2 53403  53.2178  99.1508 0001329  73.3829  74.7188 15.45687871  1303,6807.495,93.162,430.264,428.455,0.0
53403.0,STARLINK-4507,PAYLOAD,2022-09-09 20:00:01,15.45086592,0.0001298,53.2175,97.9672,65.1488,34.5761,-0.025697,-0.01129992,0.0,0 STARLINK-4507,1 53403U 22097R   22252.83334491 -.01129992  00000-0 -25697-1 0  9998,2 53403  53.2175  97.9672 0001298  65.1488  34.5761 15.45086592  5233,6809.261,93.199,432.009,430.242,0.0
53403.0,STARLINK-4507,PAYLOAD,2022-09-09 22:00:00,15.4488487,0.0001386999999999,53.2176,97.5727,71.8466,131.6324,-0.025823,-0.01127901,0.0,0 STARLINK-4507,1 53403U 22097R   22252.91667824 -.01127901  00000-0 -25823-1 0  9995,2 53403  53.2176  97.5727 0001387  71.8466 131.6324 15.44884870  1302,6809.853,93.211,432.663,430.774,0.0
53403.0,STARLINK-4507,PAYLOAD,2022-09-10 14:00:01,15.43278733,0.0001179,53.2177,94.4165,75.2733,236.069,-0.0272399999999999,-0.01126366,0.0,0 STARLINK-4507,1 53403U 22097R   22253.58334491 -.01126366  00000-0 -27240-1 0  9999,2 53403  53.2177  94.4165 0001179  75.2733 236.0690 15.43278733  5347,6814.5769999999975,93.308,437.246,435.639,0.0
53403.0,STARLINK-4507,PAYLOAD,2022-09-10 22:00:00,15.42477801,0.0001227,53.2175,92.8443,60.9786,302.846,-0.0281009999999999,-0.01130506,0.0,0 STARLINK-4507,1 53403U 22097R   22253.91667824 -.01130506  00000-0 -28101-1 0  9993,2 53403  53.2175  92.8443 0001227  60.9786 302.8460 15.42477801  1304,6816.936,93.356,439.638,437.965,0.0
53403.0,STARLINK-4507,PAYLOAD,2022-09-11 06:00:00,15.4169345,0.0001224,53.2175,91.2695,67.3154,348.0208,-0.029561,-0.01155848,0.0,0 STARLINK-4507,1 53403U 22097R   22254.25001157 -.01155848  00000-0 -29561-1 0  9999,2 53403  53.2175  91.2695 0001224  67.3154 348.0208 15.41693450  5454,6819.248000000001,93.404,441.948,440.278,0.0
53403.0,STARLINK-4507,PAYLOAD,2022-09-11 14:00:01,15.40869282,0.0001278,53.2175,89.6995,71.1941,34.7059,-0.029514,-0.0112538,0.0,0 STARLINK-4507,1 53403U 22097R   22254.58334491 -.01125380  00000-0 -29514-1 0  9991,2 53403  53.2175  89.6995 0001278  71.1941  34.7059 15.40869282  1304,6821.679,93.454,444.416,442.673,0.0
53403.0,STARLINK-4507,PAYLOAD,2022-09-11 22:00:00,15.40066543,0.0001392,53.2175,88.133,68.5509,86.9374,-0.030318,-0.01125544,0.0,0 STARLINK-4507,1 53403U 22097R   22254.91667824 -.01125544  00000-0 -30318-1 0  9993,2 53403  53.2175  88.1330 0001392  68.5509  86.9374 15.40066543  1306,6824.05,93.502,446.865,444.965,0.0
53403.0,STARLINK-4507,PAYLOAD,2022-09-12 12:00:00,15.38662252,0.0001372,53.2174,85.3905,69.9511,79.998,-0.031791,-0.01126572,0.0,0 STARLINK-4507,1 53403U 22097R   22255.50001157 -.01126572  00000-0 -31791-1 0  9998,2 53403  53.2174  85.3905 0001372  69.9511  79.9980 15.38662252  5640,6828.201,93.588,451.003,449.129,0.0
53403.0,STARLINK-4507,PAYLOAD,2022-09-12 14:00:01,15.38461099,0.0001320999999999,53.2175,84.9999,77.0536,174.7198,-0.031962,-0.01125269,0.0,0 STARLINK-4507,1 53403U 22097R   22255.58334491 -.01125269  00000-0 -31962-1 0  9998,2 53403  53.2175  84.9999 0001321  77.0536 174.7198 15.38461099  1300,6828.795999999999,93.6,451.56300000000016,449.759,0.0
53403.0,STARLINK-4507,PAYLOAD,2022-09-12 22:00:00,15.37749526,0.0001099,53.2179,83.4376,79.8873,218.5285,-0.036319,-0.012376,0.0,0 STARLINK-4507,1 53403U 22097R   22255.91667824 -.01237600  00000-0 -36319-1 0  9998,2 53403  53.2179  83.4376 0001099  79.8873 218.5285 15.37749526  1300,6830.903,93.643,453.519,452.017,0.0
53403.0,STARLINK-4507,PAYLOAD,2022-09-13 06:00:00,15.36856603,0.0001093,53.2175,81.8764,81.1397,263.0586,-0.033785,-0.01128318,0.0,0 STARLINK-4507,1 53403U 22097R   22256.25001157 -.01128318  00000-0 -33785-1 0  9996,2 53403  53.2175  81.8764 0001093  81.1397 263.0586 15.36856603  5756,6833.5480000000025,93.698,456.16,454.667,0.0
53403.0,STARLINK-4507,PAYLOAD,2022-09-13 14:00:01,15.36052755,0.0001137,53.2175,80.3174,78.291,310.6728,-0.034593,-0.0112581,0.0,0 STARLINK-4507,1 53403U 22097R   22256.58334491 -.01125810  00000-0 -34593-1 0  9994,2 53403  53.2175  80.3174 0001137  78.2910 310.6728 15.36052755  1302,6835.932,93.747,458.575,457.02,0.0
53403.0,STARLINK-4507,PAYLOAD,2022-09-13 22:00:00,15.35248157,0.0001309,53.2175,78.762,59.8552,12.9091,-0.035426,-0.01123617,0.0,0 STARLINK-4507,1 53403U 22097R   22256.91667824 -.01123617  00000-0 -35426-1 0  9999,2 53403  53.2175  78.7620 0001309  59.8552  12.9091 15.35248157  1304,6838.32,93.796,461.081,459.29,0.0
53403.0,STARLINK-4507,PAYLOAD,2022-09-14 06:00:00,15.34445639,0.0001296,53.2175,77.2051,67.6864,47.9144,-0.0363589999999999,-0.01123854,0.0,0 STARLINK-4507,1 53403U 22097R   22257.25001157 -.01123854  00000-0 -36359-1 0  9997,2 53403  53.2175  77.2051 0001296  67.6864  47.9144 15.34445639  5915,6840.705,93.845,463.456,461.6830000000001,0.0
53403.0,STARLINK-4507,PAYLOAD,2022-09-14 14:00:01,15.33705999,0.0001349,53.2181,75.65,68.7347,88.7028,-0.04011,-0.01202932,0.0,0 STARLINK-4507,1 53403U 22097R   22257.58334491 -.01202932  00000-0 -40110-1 0  9998,2 53403  53.2181  75.6500 0001349  68.7347  88.7028 15.33705999  1300,6842.904,93.89,465.692,463.846,0.0
53403.0,STARLINK-4507,PAYLOAD,2022-09-14 20:00:01,15.33042633,0.0001402,53.2176,74.4896,60.6546,37.5853,-0.0381339999999999,-0.01126908,0.0,0 STARLINK-4507,1 53403U 22097R   22257.83334491 -.01126908  00000-0 -38134-1 0  9997,2 53403  53.2176  74.4896 0001402  60.6546  37.5853 15.33042633  6000,6844.878000000002,93.931,467.702,465.783,0.0
53403.0,STARLINK-4507,PAYLOAD,2022-09-14 22:00:00,15.32809568,0.0001475,53.2181,74.1007,64.3583,134.0352,-0.036797,-0.01083314,0.0,0 STARLINK-4507,1 53403U 22097R   22257.91667824 -.01083314  00000-0 -36797-1 0  9991,2 53403  53.2181  74.1007 0001475  64.3583 134.0352 15.32809568  1301,6845.571,93.945,468.446,466.427,0.0
53403.0,STARLINK-4507,PAYLOAD,2022-09-15 14:00:01,15.31279891,0.0001326,53.2182,71.0016,82.1173,195.1524,-0.042352,-0.01178705,0.0,0 STARLINK-4507,1 53403U 22097R   22258.58334491 -.01178705  00000-0 -42352-1 0  9999,2 53403  53.2182  71.0016 0001326  82.1173 195.1524 15.31279891  1304,6850.13,94.039,472.903,471.086,0.0
53403.0,STARLINK-4507,PAYLOAD,2022-09-15 22:00:00,15.30429374,0.000122,53.2175,69.4593,73.0118,242.2948,-0.041112,-0.01119624,0.0,0 STARLINK-4507,1 53403U 22097R   22258.91667824 -.01119624  00000-0 -41112-1 0  9993,2 53403  53.2175  69.4593 0001220  73.0118 242.2948 15.30429374  1304,6852.667,94.091,475.36800000000005,473.696,0.0
53403.0,STARLINK-4507,PAYLOAD,2022-09-16 02:00:01,15.30030106,0.0001585,53.2175,68.6856,54.8961,99.0551,-0.041792,-0.01123765,0.0,0 STARLINK-4507,1 53403U 22097R   22259.08334491 -.01123765  00000-0 -41792-1 0  9998,2 53403  53.2175  68.6856 0001585  54.8961  99.0551 15.30030106  6195,6853.859,94.116,476.811,474.638,0.0
53403.0,STARLINK-4507,PAYLOAD,2022-09-16 14:00:01,15.289012,0.0001161999999999,53.2183,66.3704,64.99,323.4017,-0.047094,-0.01230601,0.0,0 STARLINK-4507,1 53403U 22097R   22259.58334491 -.01230601  00000-0 -47094-1 0  9992,2 53403  53.2183  66.3704 0001162  64.9900 323.4017 15.28901200  1305,6857.233,94.185,479.895,478.301,0.0
53403.0,STARLINK-4507,PAYLOAD,2022-09-16 22:00:00,15.28020017,0.0001257,53.2174,64.8336,64.7487,358.8043,-0.044254,-0.01118607,0.0,0 STARLINK-4507,1 53403U 22097R   22259.91667824 -.01118607  00000-0 -44254-1 0  9994,2 53403  53.2174  64.8336 0001257  64.7487 358.8043 15.28020017  6328,6859.869000000002,94.24,482.596,480.872,0.0
